{"type": "FeatureCollection", "features": [ {"type": "Feature", "properties": {"norad_id": 67091, "name": "STARLINK-36097", "group": "last-30-days", "lat": -50.47250520225386, "lon": 57.18840383602365, "alt_km": 345.6452619657948, "timestamp": "2025-12-26T10:30:48.978245+00:00", "meta": {"OBJECT_NAME": "STARLINK-36097", "OBJECT_ID": "2025-298S", "EPOCH": "2025-12-26T04:00:01.998720", "MEAN_MOTION": 15.77257397, "ECCENTRICITY": 0.00036, "INCLINATION": 69.9966, "RA_OF_ASC_NODE": 211.7589, "ARG_OF_PERICENTER": 273.6624, "MEAN_ANOMALY": 221.5432, "EPHEMERIS_TYPE": 0, "CLASSIFICATION_TYPE": "U", "NORAD_CAT_ID": 67091, "ELEMENT_SET_NO": 999, "REV_AT_EPOCH": 313, "BSTAR": -0.012226, "MEAN_MOTION_DOT": -0.01773048, "MEAN_MOTION_DDOT": 0}, "tle": {"line1": "1 67091U 25298S   25360.16668980 -.01773048  00000+0 -12226-1 0  9994", "line2": "2 67091  69.9966 211.7589 0003600 273.6624 221.5432 15.77257397  3131"}}, "geometry": {"type": "Point", "coordinates": [57.18840383602365, -50.47250520225386]}}, {"type": "Feature", "properties": {"norad_id": 67092, "name": "STARLINK-35792", "group": "last-30-days", "lat": -52.036448379714756, "lon": 58.81912862820241, "alt_km": 345.7302842475019, "timestamp": "2025-12-26T10:30:48.978257+00:00", "meta": {"OBJECT_NAME": "STARLINK-35792", "OBJECT_ID": "2025-298T", "EPOCH": "2025-12-26T04:00:01.998720", "MEAN_MOTION": 15.77255553, "ECCENTRICITY": 0.0003553, "INCLINATION": 69.9963, "RA_OF_ASC_NODE": 211.7558, "ARG_OF_PERICENTER": 276.27, "MEAN_ANOMALY": 220.8077, "EPHEMERIS_TYPE": 0, "CLASSIFICATION_TYPE": "U", "NORAD_CAT_ID": 67092, "ELEMENT_SET_NO": 999, "REV_AT_EPOCH": 307, "BSTAR": -0.012187, "MEAN_MOTION_DOT": -0.01767937, "MEAN_MOTION_DDOT": 0}, "tle": {"line1": "1 67092U 25298T   25360.16668980 -.01767937  00000+0 -12187-1 0  9991", "line2": "2 67092  69.9963 211.7558 0003553 276.2700 220.8077 15.77255553  3078"}}, "geometry": {"type": "Point", "coordinates": [58.81912862820241, -52.036448379714756]}}, {"type": "Feature", "properties": {"norad_id": 67093, "name": "STARLINK-35784", "group": "last-30-days", "lat": -53.65961549912785, "lon": 60.66733037063224, "alt_km": 345.6546905285941, "timestamp": "2025-12-26T10:30:48.978269+00:00", "meta": {"OBJECT_NAME": "STARLINK-35784", "OBJECT_ID": "2025-298U", "EPOCH": "2025-12-26T04:00:01.998720", "MEAN_MOTION": 15.77258586, "ECCENTRICITY": 0.0003565, "INCLINATION": 69.9961, "RA_OF_ASC_NODE": 211.7534, "ARG_OF_PERICENTER": 273.8424, "MEAN_ANOMALY": 225.2064, "EPHEMERIS_TYPE": 0, "CLASSIFICATION_TYPE": "U", "NORAD_CAT_ID": 67093, "ELEMENT_SET_NO": 999, "REV_AT_EPOCH": 313, "BSTAR": -0.012238, "MEAN_MOTION_DOT": -0.01774739, "MEAN_MOTION_DDOT": 0}, "tle": {"line1": "1 67093U 25298U   25360.16668980 -.01774739  00000+0 -12238-1 0  9997", "line2": "2 67093  69.9961 211.7534 0003565 273.8424 225.2064 15.77258586  3131"}}, "geometry": {"type": "Point", "coordinates": [60.66733037063224, -53.65961549912785]}}, {"type": "Feature", "properties": {"norad_id": 67094, "name": "STARLINK-36202", "group": "last-30-days", "lat": -55.36663907345315, "lon": 62.81365580669176, "alt_km": 345.7209478900613, "timestamp": "2025-12-26T10:30:48.978282+00:00", "meta": {"OBJECT_NAME": "STARLINK-36202", "OBJECT_ID": "2025-298V", "EPOCH": "2025-12-26T04:00:01.998720", "MEAN_MOTION": 15.77245249, "ECCENTRICITY": 0.0003634, "INCLINATION": 69.9963, "RA_OF_ASC_NODE": 211.7514, "ARG_OF_PERICENTER": 277.3706, "MEAN_ANOMALY": 223.8089, "EPHEMERIS_TYPE": 0, "CLASSIFICATION_TYPE": "U", "NORAD_CAT_ID": 67094, "ELEMENT_SET_NO": 999, "REV_AT_EPOCH": 313, "BSTAR": -0.012206, "MEAN_MOTION_DOT": -0.01769705, "MEAN_MOTION_DDOT": 0}, "tle": {"line1": "1 67094U 25298V   25360.16668980 -.01769705  00000+0 -12206-1 0  9990", "line2": "2 67094  69.9963 211.7514 0003634 277.3706 223.8089 15.77245249  3134"}}, "geometry": {"type": "Point", "coordinates": [62.81365580669176, -55.36663907345315]}}, {"type": "Feature", "properties": {"norad_id": 67095, "name": "STARLINK-36227", "group": "last-30-days", "lat": -56.96094325416303, "lon": 65.04492557812922, "alt_km": 345.75337523958115, "timestamp": "2025-12-26T10:30:48.978292+00:00", "meta": {"OBJECT_NAME": "STARLINK-36227", "OBJECT_ID": "2025-298W", "EPOCH": "2025-12-26T04:00:01.998720", "MEAN_MOTION": 15.77241278, "ECCENTRICITY": 0.0003581, "INCLINATION": 69.996, "RA_OF_ASC_NODE": 211.7484, "ARG_OF_PERICENTER": 277.707, "MEAN_ANOMALY": 225.501, "EPHEMERIS_TYPE": 0, "CLASSIFICATION_TYPE": "U", "NORAD_CAT_ID": 67095, "ELEMENT_SET_NO": 999, "REV_AT_EPOCH": 307, "BSTAR": -0.012206, "MEAN_MOTION_DOT": -0.01769353, "MEAN_MOTION_DDOT": 0}, "tle": {"line1": "1 67095U 25298W   25360.16668980 -.01769353  00000+0 -12206-1 0  9990", "line2": "2 67095  69.9960 211.7484 0003581 277.7070 225.5010 15.77241278  3071"}}, "geometry": {"type": "Point", "coordinates": [65.04492557812922, -56.96094325416303]}}, {"type": "Feature", "properties": {"norad_id": 67096, "name": "STARLINK-36228", "group": "last-30-days", "lat": -58.36600675437148, "lon": 67.23172856191962, "alt_km": 345.81752851901456, "timestamp": "2025-12-26T10:30:48.978302+00:00", "meta": {"OBJECT_NAME": "STARLINK-36228", "OBJECT_ID": "2025-298X", "EPOCH": "2025-12-26T04:00:01.998720", "MEAN_MOTION": 15.77244655, "ECCENTRICITY": 0.0003428, "INCLINATION": 69.9965, "RA_OF_ASC_NODE": 211.7468, "ARG_OF_PERICENTER": 277.6755, "MEAN_ANOMALY": 227.3597, "EPHEMERIS_TYPE": 0, "CLASSIFICATION_TYPE": "U", "NORAD_CAT_ID": 67096, "ELEMENT_SET_NO": 999, "REV_AT_EPOCH": 307, "BSTAR": -0.01221, "MEAN_MOTION_DOT": -0.01769946, "MEAN_MOTION_DDOT": 0}, "tle": {"line1": "1 67096U 25298X   25360.16668980 -.01769946  00000+0 -12210-1 0  9994", "line2": "2 67096  69.9965 211.7468 0003428 277.6755 227.3597 15.77244655  3070"}}, "geometry": {"type": "Point", "coordinates": [67.23172856191962, -58.36600675437148]}}, {"type": "Feature", "properties": {"norad_id": 67097, "name": "STARLINK-36222", "group": "last-30-days", "lat": -59.845330477563884, "lon": 69.81058400054333, "alt_km": 345.67867856137946, "timestamp": "2025-12-26T10:30:48.978314+00:00", "meta": {"OBJECT_NAME": "STARLINK-36222", "OBJECT_ID": "2025-298Y", "EPOCH": "2025-12-26T04:00:01.998720", "MEAN_MOTION": 15.77247672, "ECCENTRICITY": 0.0003533, "INCLINATION": 69.9959, "RA_OF_ASC_NODE": 211.7444, "ARG_OF_PERICENTER": 274.5472, "MEAN_ANOMALY": 232.4751, "EPHEMERIS_TYPE": 0, "CLASSIFICATION_TYPE": "U", "NORAD_CAT_ID": 67097, "ELEMENT_SET_NO": 999, "REV_AT_EPOCH": 307, "BSTAR": -0.012269, "MEAN_MOTION_DOT": -0.01777827, "MEAN_MOTION_DDOT": 0}, "tle": {"line1": "1 67097U 25298Y   25360.16668980 -.01777827  00000+0 -12269-1 0  9996", "line2": "2 67097  69.9959 211.7444 0003533 274.5472 232.4751 15.77247672  3078"}}, "geometry": {"type": "Point", "coordinates": [69.81058400054333, -59.845330477563884]}}, {"type": "Feature", "properties": {"norad_id": 67098, "name": "STARLINK-36205", "group": "last-30-days", "lat": -61.35956386834237, "lon": 72.81205200136128, "alt_km": 345.63936443755847, "timestamp": "2025-12-26T10:30:48.978325+00:00", "meta": {"OBJECT_NAME": "STARLINK-36205", "OBJECT_ID": "2025-298Z", "EPOCH": "2025-12-26T04:00:01.998720", "MEAN_MOTION": 15.77238675, "ECCENTRICITY": 0.0003619, "INCLINATION": 69.9964, "RA_OF_ASC_NODE": 211.7413, "ARG_OF_PERICENTER": 274.6713, "MEAN_ANOMALY": 234.4771, "EPHEMERIS_TYPE": 0, "CLASSIFICATION_TYPE": "U", "NORAD_CAT_ID": 67098, "ELEMENT_SET_NO": 999, "REV_AT_EPOCH": 313, "BSTAR": -0.01228, "MEAN_MOTION_DOT": -0.01778702, "MEAN_MOTION_DDOT": 0}, "tle": {"line1": "1 67098U 25298Z   25360.16668980 -.01778702  00000+0 -12280-1 0  9993", "line2": "2 67098  69.9964 211.7413 0003619 274.6713 234.4771 15.77238675  3139"}}, "geometry": {"type": "Point", "coordinates": [72.81205200136128, -61.35956386834237]}}, {"type": "Feature", "properties": {"norad_id": 67099, "name": "STARLINK-36193", "group": "last-30-days", "lat": -53.184288019892044, "lon": 60.10675141885825, "alt_km": 355.58557739767366, "timestamp": "2025-12-26T10:30:48.978335+00:00", "meta": {"OBJECT_NAME": "STARLINK-36193", "OBJECT_ID": "2025-298AA", "EPOCH": "2025-12-26T04:00:01.998720", "MEAN_MOTION": 15.7424393, "ECCENTRICITY": 0.0003392, "INCLINATION": 69.9973, "RA_OF_ASC_NODE": 211.751, "ARG_OF_PERICENTER": 274.6722, "MEAN_ANOMALY": 226.9538, "EPHEMERIS_TYPE": 0, "CLASSIFICATION_TYPE": "U", "NORAD_CAT_ID": 67099, "ELEMENT_SET_NO": 999, "REV_AT_EPOCH": 307, "BSTAR": -0.019859, "MEAN_MOTION_DOT": -0.02456993, "MEAN_MOTION_DDOT": 0}, "tle": {"line1": "1 67099U 25298AA  25360.16668980 -.02456993  00000+0 -19859-1 0  9999", "line2": "2 67099  69.9973 211.7510 0003392 274.6722 226.9538 15.74243930  3073"}}, "geometry": {"type": "Point", "coordinates": [60.10675141885825, -53.184288019892044]}}, {"type": "Feature", "properties": {"norad_id": 67100, "name": "STARLINK-36215", "group": "last-30-days", "lat": -64.92602245331128, "lon": 82.10302954867993, "alt_km": 345.6274876198577, "timestamp": "2025-12-26T10:30:48.978345+00:00", "meta": {"OBJECT_NAME": "STARLINK-36215", "OBJECT_ID": "2025-298AB", "EPOCH": "2025-12-26T04:00:01.998720", "MEAN_MOTION": 15.77248758, "ECCENTRICITY": 0.0003557, "INCLINATION": 69.9958, "RA_OF_ASC_NODE": 211.7354, "ARG_OF_PERICENTER": 276.1295, "MEAN_ANOMALY": 238.5181, "EPHEMERIS_TYPE": 0, "CLASSIFICATION_TYPE": "U", "NORAD_CAT_ID": 67100, "ELEMENT_SET_NO": 999, "REV_AT_EPOCH": 313, "BSTAR": -0.012259, "MEAN_MOTION_DOT": -0.01776727, "MEAN_MOTION_DDOT": 0}, "tle": {"line1": "1 67100U 25298AB  25360.16668980 -.01776727  00000+0 -12259-1 0  9998", "line2": "2 67100  69.9958 211.7354 0003557 276.1295 238.5181 15.77248758  3136"}}, "geometry": {"type": "Point", "coordinates": [82.10302954867993, -64.92602245331128]}}]}